[{"OBJECT_NAME":"STARLINK-31001","OBJECT_ID":"2023-191V","EPOCH":"2026-03-09T02:33:56.668896","MEAN_MOTION":15.26736187,"ECCENTRICITY":0.00016176,"INCLINATION":43.0014,"RA_OF_ASC_NODE":106.5046,"ARG_OF_PERICENTER":286.3592,"MEAN_ANOMALY":73.7082,"EPHEMERIS_TYPE":0,"CLASSIFICATION_TYPE":"U","NORAD_CAT_ID":58527,"ELEMENT_SET_NO":999,"REV_AT_EPOCH":12538,"BSTAR":0.00027286212,"MEAN_MOTION_DOT":7.065e-5,"MEAN_MOTION_DDOT":0},{"OBJECT_NAME":"DMSP 5D-2 F14 DEB","OBJECT_ID":"1997-012E","EPOCH":"2026-03-09T23:05:42.500544","MEAN_MOTION":15.25086034,"ECCENTRICITY":0.00083151,"INCLINATION":98.7933,"RA_OF_ASC_NODE":208.6058,"ARG_OF_PERICENTER":272.9178,"MEAN_ANOMALY":87.1104,"EPHEMERIS_TYPE":0,"CLASSIFICATION_TYPE":"U","NORAD_CAT_ID":24778,"ELEMENT_SET_NO":999,"REV_AT_EPOCH":51788,"BSTAR":0.0054670036,"MEAN_MOTION_DOT":0.00139299,"MEAN_MOTION_DDOT":0}]
